SCD 1                   
1 22490U 93009B   26182.25742653  .00000440  00000+0  69330-4 0  9993
2 22490  24.9687 120.6982 0041634 286.9841 210.6406 14.46124284763156
TECHSAT 1B (GO-32)      
1 25397U 98043D   26182.46419188  .00000057  00000+0  44995-4 0  9996
2 25397  99.0073 175.5832 0001736 137.0286 223.1028 14.24431155453360
SCD 2                   
1 25504U 98060A   26182.52253948  .00000389  00000+0  57762-4 0  9996
2 25504  24.9967 343.7549 0016534 274.7984 129.9996 14.45531102462407
DLR-TUBSAT              
1 25757U 99029B   26182.62258497  .00000111  00000+0  39021-4 0  9998
2 25757  98.6701 178.6018 0013256 309.4975  50.5047 14.52430552435345
TERRA                   
1 25994U 99068A   26182.62327258  .00000442  00000+0  98958-4 0  9997
2 25994  97.9449 231.5967 0002677 150.7204  10.5658 14.61114647411711
MAROC-TUBSAT            
1 27004U 01056D   26182.45800693 -.00000034  00000+0  14618-4 0  9990
2 27004  99.8088 359.5869 0020604 105.8978 308.7943 13.70263025228142
AQUA                    
1 27424U 02022A   26182.62898296  .00000805  00000+0  16972-3 0  9994
2 27424  98.4284 152.2010 0000701  78.5031 336.3355 14.62179869285386
SHIYAN-1 (SY-1)         
1 28220U 04012A   26182.20888014  .00018090  00000+0  54964-3 0  9999
2 28220  97.8690 261.1911 0004395 339.9341  20.1727 15.34119673213240
AURA                    
1 28376U 04026A   26182.57040569  .00000798  00000+0  17128-3 0  9998
2 28376  98.3423 139.1434 0001177  85.7827 274.3508 14.61350548168310
IRS-P5 (CARTOSAT-1)     
1 28649U 05017A   26182.50646317  .00001353  00000+0  14184-3 0  9995
2 28649  97.5305 204.9214 0002143  62.9113 297.2325 14.91087065145959
SINAH 1                 
1 28893U 05043D   26182.61038334  .00000348  00000+0  75470-4 0  9990
2 28893  98.2880 317.0185 0013496 227.5107 132.4955 14.64167465102634
RESURS-DK 1             
1 29228U 06021A   26182.51171680  .00002294  00000+0  13467-3 0  9990
2 29228  69.9341 302.4724 0006685 284.9688  75.0738 15.13275435104741
ARIRANG-2 (KOMPSAT-2)   
1 29268U 06031A   26182.64450644  .00000375  00000+0  78854-4 0  9999
2 29268  97.8303   6.3914 0015360  32.4390  56.4412 14.64668972 63596
LAPAN-TUBSAT            
1 29709U 07001A   26182.59729383 -.00000041  00000+0  19254-5 0  9991
2 29709  98.1338 182.1465 0012971 133.7974 226.4315 14.85962250 53296
HAIYANG-1B              
1 31113U 07010A   26182.47843409  .00000095  00000+0  51869-4 0  9991
2 31113  98.3502 163.7697 0013958 154.0785 206.1100 14.31030446  2685
COSMO-SKYMED 1          
1 31598U 07023A   26182.63832720  .00002011  00000+0  17917-3 0  9999
2 31598  97.8854  14.6161 0001441  84.1145 276.0240 14.97173269 31959
TERRASAR-X              
1 31698U 07026A   26181.62885468  .00000511  00000+0  27537-4 0  9991
2 31698  97.4453 189.1447 0001922  88.4966 271.6489 15.19151223 55265
WORLDVIEW-1 (WV-1)      
1 32060U 07041A   26182.60251354  .00007047  00000+0  29013-3 0  9993
2 32060  97.3896 302.1409 0001005 311.5709  48.5443 15.24424876 45073
YAOGAN-3                
1 32289U 07055A   26182.62508953  .00002164  00000+0  22545-3 0  9991
2 32289  97.8139 212.3599 0001668  83.2857 276.8551 14.90834445  8024
COSMO-SKYMED 2          
1 32376U 07059A   26182.60829472  .00000421  00000+0  59474-4 0  9998
2 32376  97.8889   5.9971 0001333  89.8591 270.2775 14.82157239  4144
RADARSAT-2              
1 32382U 07061A   26182.59175081 -.00000061  00000+0 -67231-5 0  9999
2 32382  98.5772 189.3181 0001311  83.5923 276.5409 14.29980162968014
CARTOSAT-2A             
1 32783U 08021A   26182.58980687  .00000927  00000+0  13133-3 0  9995
2 32783  97.7626 230.8067 0013279  67.0949 293.1663 14.79261149980938
HUANJING 1A (HJ-1A)     
1 33320U 08041A   26182.59567581  .00001610  00000+0  19880-3 0  9995
2 33320  97.6683 167.8773 0020706  90.6880 269.6708 14.84021135960548
HUANJING 1B (HJ-1B)     
1 33321U 08041B   26182.63879178  .00000322  00000+0  45136-4 0  9992
2 33321  97.6519 171.0465 0037302 134.0426 226.3872 14.83339497960556
GEOEYE 1                
1 33331U 08042A   26182.63457897  .00000495  00000+0  10206-3 0  9994
2 33331  98.1334 256.3888 0004951  28.7049 331.4425 14.64639355952264
THEOS                   
1 33396U 08049A   26182.62365852  .00000306  00000+0  16337-3 0  9992
2 33396  98.5567 239.4383 0001139  80.4226 279.7080 14.20136320920011
COSMO-SKYMED 3          
1 33412U 08054A   26182.55172894  .00004433  00000+0  29940-3 0  9990
2 33412  97.8265  41.3601 0014766 214.1217 145.9062 15.07040444959109
YAOGAN-4                
1 33446U 08061A   26182.26671896  .00001185  00000+0  15140-3 0  9997
2 33446  97.9308 115.6732 0015019  30.1557 330.0518 14.83228426947752
GOSAT (IBUKI)           
1 33492U 09002A   26181.77478987 -.00000059  00000+0 -19586-5 0  9996
2 33492  98.0904 292.6868 0001216  80.5142 279.6200 14.67536972933454
DEIMOS-1                
1 35681U 09041A   26182.56563031  .00000418  00000+0  68878-4 0  9998
2 35681  97.7413 339.1703 0002370 111.0149 249.1315 14.75251728909006
